[{"place_id":1,"place_name":"Tomb of Amr bin Al-Aas","place_address":"Al Abageyah, El-Khalifa","place_city":"Cairo Governorate","place_category":"Islamic","place_geometry":{"lat":30.02748,"lng":31.2519},"lat":30.02748,"lng":31.2519,"clusterID":3},{"place_id":2,"place_name":"Mosque of Amr bin Al-Aas","place_address":"Ad Deyorah, Old Cairo","place_city":"Cairo Governorate","place_category":"Islamic","place_geometry":{"lat":30.01599,"lng":31.23358},"lat":30.01599,"lng":31.23358,"clusterID":7},{"place_id":4,"place_name":"Mosque of Sidi Uqba bin Amer in the cemetery of Sidi Uqba","place_address":"Al Abageyah, El-Khalifa","place_city":"Cairo Governorate","place_category":"Islamic","place_geometry":{"lat":30.02748,"lng":31.2519},"lat":30.02748,"lng":31.2519,"clusterID":3},{"place_id":5,"place_name":"Al Sayeda Zainab Mosque","place_address":"Al Sayeda Zainab Square","place_city":"Cairo Governorate","place_category":"Islamic","place_geometry":{"lat":30.03242,"lng":31.24178},"lat":30.03242,"lng":31.24178,"clusterID":3},{"place_id":6,"place_name":"Sayyida Sakina Mosque","place_address":"Al Abageyah, El-Khalifa","place_city":"Cairo Governorate","place_category":"Islamic","place_geometry":{"lat":30.02748,"lng":31.2519},"lat":30.02748,"lng":31.2519,"clusterID":3},{"place_id":7,"place_name":"El Sayeda Eisha Mosque","place_address":"Mrs. Aisha Square, Mrs. Aisha","place_city":"Cairo Governorate","place_category":"Islamic","place_geometry":{"lat":30.0245494,"lng":31.2568504},"lat":30.0245494,"lng":31.2568504,"clusterID":3},{"place_id":8,"place_name":"Masjid AlSayyida Nafeesah","place_address":"Al Abageyah, El-Khalifa","place_city":"Cairo Governorate","place_category":"Islamic","place_geometry":{"lat":30.022491,"lng":31.2499502},"lat":30.022491,"lng":31.2499502,"clusterID":3},{"place_id":9,"place_name":"Mosque of Ibn Tulun","place_address":"Tolon, El-Sayeda Zainab","place_city":"Cairo Governorate","place_category":"Islamic","place_geometry":{"lat":30.0286956,"lng":31.2472054},"lat":30.0286956,"lng":31.2472054,"clusterID":3},{"place_id":10,"place_name":"Al-Azhar Mosque","place_address":"El-Darb El-Ahmar","place_city":"Cairo Governorate","place_category":"Islamic","place_geometry":{"lat":30.0456926,"lng":31.2604964},"lat":30.0456926,"lng":31.2604964,"clusterID":4},{"place_id":11,"place_name":"Masjid Al Hakim","place_address":"154 Al Moez Ldin Allah Al Fatmi, El-Gamaleya","place_city":"Cairo Governorate","place_category":"Islamic","place_geometry":{"lat":30.0545503,"lng":31.2613204},"lat":30.0545503,"lng":31.2613204,"clusterID":4},{"place_id":12,"place_name":"Al-Rifa'i Mosque","place_address":"El-Refaey, El-Darb El-Ahmar","place_city":"Cairo Governorate","place_category":"Islamic","place_geometry":{"lat":30.0327137,"lng":31.2548142},"lat":30.0327137,"lng":31.2548142,"clusterID":3},{"place_id":13,"place_name":"Masjid Al-Aqmar","place_address":"Al Moez Ldin Allah Al Fatmi, El-Gamaleya, El Gamaliya","place_city":"Cairo Governorate","place_category":"Islamic","place_geometry":{"lat":30.051574,"lng":31.2597469},"lat":30.051574,"lng":31.2597469,"clusterID":4},{"place_id":17,"place_name":"Minister's door","place_address":"Bab Al-Farah, Al-Darb Al-Ahmar","place_city":"Cairo Governorate","place_category":"Islamic","place_geometry":{"lat":30.0369988,"lng":31.264034},"lat":30.0369988,"lng":31.264034,"clusterID":4},{"place_id":18,"place_name":"Al Zahir Baybars Mosque","place_address":"El-Zaher Square, As Sakakeni, Daher","place_city":"Cairo Governorate","place_category":"Islamic","place_geometry":{"lat":30.0626389,"lng":31.2608373},"lat":30.0626389,"lng":31.2608373,"clusterID":4},{"place_id":19,"place_name":"Mosque and Khanqah of Shaykhu","place_address":"Toulon, Sayeda Zeinab","place_city":"Cairo Governorate","place_category":"Islamic","place_geometry":{"lat":30.0304811,"lng":31.2499119},"lat":30.0304811,"lng":31.2499119,"clusterID":3},{"place_id":20,"place_name":"Aslam al-Selahdar Mosque","place_address":"Haret Al-Nabawyah, Al-Darb Al-Ahmar","place_city":"Cairo Governorate","place_category":"Islamic","place_geometry":{"lat":30.0408351,"lng":31.2598719},"lat":30.0408351,"lng":31.2598719,"clusterID":4},{"place_id":21,"place_name":"Mosque-Madrassa of Sultan Hassan","place_address":"El-Darb El-Ahmar, El-Khalifa","place_city":"Cairo Governorate","place_category":"Islamic","place_geometry":{"lat":30.0322837,"lng":31.2539817},"lat":30.0322837,"lng":31.2539817,"clusterID":3},{"place_id":22,"place_name":"Mosque and Madrassa of Umm Sultan Sha'aban","place_address":"Mazhar Ln, El-Darb El-Ahmar","place_city":"Cairo Governorate","place_category":"Islamic","place_geometry":{"lat":30.0371891,"lng":31.257363},"lat":30.0371891,"lng":31.257363,"clusterID":4},{"place_id":23,"place_name":"Khanqah-Mosque of al-Nasir Faraj ibn Barquq","place_address":"El-Gamaleya, El Gamaliya","place_city":"Cairo Governorate","place_category":"Islamic","place_geometry":{"lat":30.0489502,"lng":31.2786261},"lat":30.0489502,"lng":31.2786261,"clusterID":4},{"place_id":24,"place_name":"Sultan al-Mu'ayyad Mosque","place_address":"Al Shrakia, El-Darb El-Ahmar","place_city":"Cairo Governorate","place_category":"Islamic","place_geometry":{"lat":30.0433407,"lng":31.2552474},"lat":30.0433407,"lng":31.2552474,"clusterID":4},{"place_id":25,"place_name":"Al-Qadi Abdul Basit Mosque","place_address":"Al-Gamalia, Department of Gamalia","place_city":"Cairo Governorate","place_category":"Islamic","place_geometry":{"lat":30.0434307,"lng":31.246601},"lat":30.0434307,"lng":31.246601,"clusterID":3},{"place_id":27,"place_name":"Al-Matbouli Mosque","place_address":"Berket Al Hag, El Marg","place_city":"Cairo Governorate","place_category":"Islamic","place_geometry":{"lat":30.1551922,"lng":31.3690449},"lat":30.1551922,"lng":31.3690449,"clusterID":1},{"place_id":28,"place_name":"Ad-Demerdash Mosque","place_address":"El-Mohamady, Al Waili","place_city":"Cairo Governorate","place_category":"Islamic","place_geometry":{"lat":30.075185,"lng":31.2685929},"lat":30.075185,"lng":31.2685929,"clusterID":4},{"place_id":29,"place_name":"Hassan Pasha Tahir","place_address":"Sekat Baraka Al Fel, El-Darb El-Ahmar, El-Sayeda Zainab","place_city":"Cairo Governorate","place_category":"Islamic","place_geometry":{"lat":30.0323116,"lng":31.2408119},"lat":30.0323116,"lng":31.2408119,"clusterID":3},{"place_id":30,"place_name":"Suleiman Agha Al Silahdar Mosque","place_address":"Haret Beregwan, El-Gamaleya, El Gamaliya","place_city":"Cairo Governorate","place_category":"Islamic","place_geometry":{"lat":30.0524984,"lng":31.2596879},"lat":30.0524984,"lng":31.2596879,"clusterID":4},{"place_id":31,"place_name":"Mosque of Muhammad Ali","place_address":"Al Abageyah, El-Khalifa","place_city":"Cairo Governorate","place_category":"Islamic","place_geometry":{"lat":30.0287061,"lng":31.2577219},"lat":30.0287061,"lng":31.2577219,"clusterID":3},{"place_id":32,"place_name":"Sheikh Hassan Al-Adawi Mosque in Cairo","place_address":"El-Gamaleya, El-Adawy, El Gamaliya","place_city":"Cairo Governorate","place_category":"Islamic","place_geometry":{"lat":30.0520835,"lng":31.2549523},"lat":30.0520835,"lng":31.2549523,"clusterID":4},{"place_id":34,"place_name":"Gamal Eldin Al Afhghani Masjed","place_address":"Al Gamea Sq., El-Bostan, Heliopolis","place_city":"Cairo Governorate","place_category":"Islamic","place_geometry":{"lat":30.0736652,"lng":31.2782918},"lat":30.0736652,"lng":31.2782918,"clusterID":4},{"place_id":35,"place_name":"Sidi Ali Nur al-Din al-Bayoumi Mosqued","place_address":"El-Gamaleya, El Gamaliya","place_city":"Cairo Governorate","place_category":"Islamic","place_geometry":{"lat":30.0595392,"lng":31.2637689},"lat":30.0595392,"lng":31.2637689,"clusterID":4},{"place_id":36,"place_name":"Al-Hussain Mosque","place_address":"Al-Mashhad Al-Hussaini, Hasan El-Adawy","place_city":"Cairo Governorate","place_category":"Islamic","place_geometry":{"lat":30.0446126,"lng":31.2632105},"lat":30.0446126,"lng":31.2632105,"clusterID":4},{"place_id":38,"place_name":"Madrasa and Mausoleum of al-Salih Najm al-Din Ayyub","place_address":"Al Moez Ldin Allah Al Fatmi, El-Gamaleya, El Gamaliya","place_city":"Cairo Governorate","place_category":"Islamic","place_geometry":{"lat":30.049106,"lng":31.2590861},"lat":30.049106,"lng":31.2590861,"clusterID":4},{"place_id":39,"place_name":"Mosque and Madrasa Sanjar al-Jawli","place_address":"Tolon, El-Sayeda Zainab","place_city":"Cairo Governorate","place_category":"Islamic","place_geometry":{"lat":30.0296681,"lng":31.2449611},"lat":30.0296681,"lng":31.2449611,"clusterID":3},{"place_id":40,"place_name":"Salah Al-Din Al-Ayoubi Castle","place_address":"Salah Salem St, Al Abageyah, El-Khalifa","place_city":"Cairo Governorate","place_category":"Islamic","place_geometry":{"lat":30.029691,"lng":31.238395},"lat":30.029691,"lng":31.238395,"clusterID":3},{"place_id":41,"place_name":"The Egyptian Museum","place_address":"Marit Pasha Street, Tahrir Square","place_city":"Cairo Governorate","place_category":"Museum","place_geometry":{"lat":30.0475827,"lng":31.2314252},"lat":30.0475827,"lng":31.2314252,"clusterID":3},{"place_id":42,"place_name":"The National Museum of Egyptian Civilization","place_address":"Ein as Seirah, Old Cairo","place_city":"Cairo Governorate","place_category":"Museum","place_geometry":{"lat":30.0081539,"lng":31.2460717},"lat":30.0081539,"lng":31.2460717,"clusterID":7},{"place_id":43,"place_name":"Abdeen Palace Museum","place_address":"El-Gomhoreya Square, Rahbet Abdin, Abdeen","place_city":"Cairo Governorate","place_category":"Museum","place_geometry":{"lat":30.0422742,"lng":31.2463553},"lat":30.0422742,"lng":31.2463553,"clusterID":3},{"place_id":44,"place_name":"Solar Khufu Ship Museum","place_address":"Nazlet El-Semman, Al Haram","place_city":"Giza Governorate","place_category":"Museum","place_geometry":{"lat":29.9779648,"lng":31.132418},"lat":29.9779648,"lng":31.132418,"clusterID":6},{"place_id":45,"place_name":"Egyptian Geology Museum","place_address":"Al Khokhah WA Al Qenayah, Old Cairo","place_city":"Cairo Governorate","place_category":"Museum","place_geometry":{"lat":29.9964031,"lng":31.2267065},"lat":29.9964031,"lng":31.2267065,"clusterID":7},{"place_id":46,"place_name":"National Military Museum Egypt","place_address":"Salah Salem St, El-Khalifa","place_city":"Cairo Governorate","place_category":"Museum","place_geometry":{"lat":30.0308576,"lng":31.2603683},"lat":30.0308576,"lng":31.2603683,"clusterID":3},{"place_id":47,"place_name":"Royal Chariots Museum","place_address":"Boulaq","place_city":"Cairo Governorate","place_category":"Museum","place_geometry":{"lat":30.0558515,"lng":31.2224492},"lat":30.0558515,"lng":31.2224492,"clusterID":2},{"place_id":48,"place_name":"The Coptic Museum","place_address":"3 Mari Gerges, Kom Ghorab, Old Cairo","place_city":"Cairo Governorate","place_category":"Museum","place_geometry":{"lat":30.0056082,"lng":31.2279278},"lat":30.0056082,"lng":31.2279278,"clusterID":7},{"place_id":49,"place_name":"The Child Museum","place_address":"34 Abou Bakr El-Sedeek, El-Bostan, Heliopolis","place_city":"Cairo Governorate","place_category":"Museum","place_geometry":{"lat":30.1022427,"lng":31.3347573},"lat":30.1022427,"lng":31.3347573,"clusterID":1},{"place_id":50,"place_name":"Marzouk Egyptian Souvlaki","place_address":"Al Mathaf Al Zerai, Ad Doqi, Dokki","place_city":"Giza Governorate","place_category":"Museum","place_geometry":{"lat":30.0455984,"lng":31.2090485},"lat":30.0455984,"lng":31.2090485,"clusterID":2},{"place_id":51,"place_name":"Museum of Islamic Art","place_address":"Port Said, St\u060c El-Darb El-Ahmar, ","place_city":"Cairo Governorate","place_category":"Museum","place_geometry":{"lat":30.0444085,"lng":31.2501631},"lat":30.0444085,"lng":31.2501631,"clusterID":3},{"place_id":52,"place_name":"Museum Of Modern Egyptian Art","place_address":"Zamalek","place_city":"Cairo Governorate","place_category":"Museum","place_geometry":{"lat":30.0436911,"lng":31.2224581},"lat":30.0436911,"lng":31.2224581,"clusterID":2},{"place_id":53,"place_name":"Science Museum","place_address":"3 Sohag, Al Hay as Sabea, Al Waili","place_city":"Cairo Governorate","place_category":"Museum","place_geometry":{"lat":30.0516792,"lng":31.2479012},"lat":30.0516792,"lng":31.2479012,"clusterID":3},{"place_id":54,"place_name":"Geographical Association of Egypt","place_address":"109 Al Qasr Al Aini Street, Entrance to Parliament","place_city":"Cairo Governorate","place_category":"Museum","place_geometry":{"lat":30.0411236,"lng":31.2338586},"lat":30.0411236,"lng":31.2338586,"clusterID":3},{"place_id":55,"place_name":"Wax Museum in Helwan","place_address":"Mansour, Helwan","place_city":"Cairo Governorate","place_category":"Museum","place_geometry":{"lat":29.860134,"lng":31.3239235},"lat":29.860134,"lng":31.3239235,"clusterID":5},{"place_id":56,"place_name":"Qasr Al Ain medical school museum","place_address":"Old Cairo","place_city":"Giza Governorate","place_category":"Museum","place_geometry":{"lat":30.0445496,"lng":31.1656718},"lat":30.0445496,"lng":31.1656718,"clusterID":2},{"place_id":57,"place_name":"Nation's House Museum","place_address":"2 Saad Zaghloul, Al Inshaa WA Al Munirah, El-Sayeda Zainab","place_city":"Cairo Governorate","place_category":"Museum","place_geometry":{"lat":30.0381149,"lng":31.2352862},"lat":30.0381149,"lng":31.2352862,"clusterID":3},{"place_id":58,"place_name":"Islamic Ceramics Museum","place_address":"1 Al Sheikh Al Marsafi, Omar Al Khayam, Zamalek","place_city":"Cairo Governorate","place_category":"Museum","place_geometry":{"lat":30.0571787,"lng":31.2204594},"lat":30.0571787,"lng":31.2204594,"clusterID":2},{"place_id":59,"place_name":"Al-Suhaimi House Museum","place_address":"Branching from, Al-Darb Al-Asfar Lane, Al Moez Ldin Allah Al Fatmi","place_city":"Cairo Governorate","place_category":"Museum","place_geometry":{"lat":30.0520845,"lng":31.2601152},"lat":30.0520845,"lng":31.2601152,"clusterID":4},{"place_id":60,"place_name":"Egyptian Railway Museum","place_address":"Ramses, Al Fagalah, Al Azbakeya","place_city":"Cairo Governorate","place_category":"Museum","place_geometry":{"lat":30.0634932,"lng":31.2462799},"lat":30.0634932,"lng":31.2462799,"clusterID":4},{"place_id":61,"place_name":"Prince Mohamed Ali Palace (Al Manial Palace)","place_address":"1 Saraya, Old Cairo","place_city":"Cairo Governorate","place_category":"Museum","place_geometry":{"lat":30.0289553,"lng":31.2278243},"lat":30.0289553,"lng":31.2278243,"clusterID":7},{"place_id":62,"place_name":"The Grand Egyptian Museum","place_address":"Cairo - Alexandria Desert Rd, Kafr Nassar, Al Haram","place_city":"Giza Governorate","place_category":"Museum","place_geometry":{"lat":29.9942361,"lng":31.1165584},"lat":29.9942361,"lng":31.1165584,"clusterID":6},{"place_id":63,"place_name":"Karmet Ibn Hanie Cultural Center Ahmed Shawky Museum","place_address":"6 Ahmed Shawky st. , off Murad st. , in front of Giza Zoo , Kournish El-Nil","place_city":"Giza Governorate","place_category":"Museum","place_geometry":{"lat":30.0212671,"lng":31.2152454},"lat":30.0212671,"lng":31.2152454,"clusterID":7},{"place_id":64,"place_name":"Mohamed Mahmoud Khalil Museum","place_address":"1 Kafor, Ad Doqi A, Giza Governorate","place_city":"Giza Governorate","place_category":"Museum","place_geometry":{"lat":30.0356011,"lng":31.2173982},"lat":30.0356011,"lng":31.2173982,"clusterID":2},{"place_id":71,"place_name":"The Great Pyramid of Giza","place_address":"Al Haram, Nazlet El-Semman, Al Giza Desert","place_city":"Giza Governorate","place_category":"Pharaonic","place_geometry":{"lat":29.97827,"lng":31.13116},"lat":29.97827,"lng":31.13116,"clusterID":6},{"place_id":78,"place_name":"Pyramid of Djoser","place_address":"Al Giza Desert, Giza","place_city":"Giza Governorate","place_category":"Pharaonic","place_geometry":{"lat":29.9522216,"lng":31.1367609},"lat":29.9522216,"lng":31.1367609,"clusterID":6},{"place_id":79,"place_name":"Mastaba de Mereruka","place_address":"Saqarah, Al Badrashin","place_city":"Giza Governorate","place_category":"Pharaonic","place_geometry":{"lat":29.8633697,"lng":31.1604543},"lat":29.8633697,"lng":31.1604543,"clusterID":0},{"place_id":80,"place_name":"Mit Rahina Museum","place_address":"Mit Rahinah, Al Badrashin","place_city":"Giza Governorate","place_category":"Pharaonic","place_geometry":{"lat":29.8494722,"lng":31.2521359},"lat":29.8494722,"lng":31.2521359,"clusterID":0},{"place_id":81,"place_name":"Pyramid of Sahure","place_address":"Abusir, Al Badrashin","place_city":"Giza Governorate","place_category":"Pharaonic","place_geometry":{"lat":29.8495467,"lng":31.2193052},"lat":29.8495467,"lng":31.2193052,"clusterID":0},{"place_id":82,"place_name":"Pyramid of Neferefre","place_address":"Abusir, Al Badrashin","place_city":"Giza Governorate","place_category":"Pharaonic","place_geometry":{"lat":29.8495467,"lng":31.2193052},"lat":29.8495467,"lng":31.2193052,"clusterID":0},{"place_id":95,"place_name":"The Hanging Church","place_address":"Kom Ghorab, Old Cairo","place_city":"Cairo Governorate","place_category":"Christian","place_geometry":{"lat":30.0052709,"lng":31.2279939},"lat":30.0052709,"lng":31.2279939,"clusterID":7},{"place_id":97,"place_name":"St. George's church","place_address":"Mar Gerges, Kom Ghorab, Ancient Egypt","place_city":"Cairo Governorate","place_category":"Christian","place_geometry":{"lat":30.0416045,"lng":31.2045549},"lat":30.0416045,"lng":31.2045549,"clusterID":2},{"place_id":98,"place_name":"St Sergius and St Bacchus Church","place_address":"Mari Gerges, Kom Ghorab, Old Cairo","place_city":"Cairo Governorate","place_category":"Christian","place_geometry":{"lat":30.0062836,"lng":31.228486},"lat":30.0062836,"lng":31.228486,"clusterID":7},{"place_id":99,"place_name":"Our Lady of Heliopolis Co-Cathedral","place_address":"Nazih Khalifa crossroad\u060c Al Ahram, Heliopolis","place_city":"Cairo Governorate","place_category":"Christian","place_geometry":{"lat":30.0935753,"lng":31.3229941},"lat":30.0935753,"lng":31.3229941,"clusterID":1}]